{"type": "FeatureCollection", "features": [ {"type": "Feature", "properties": {"norad_id": 39574, "name": "GPM-CORE", "group": "resource", "lat": 23.826003695692776, "lon": 26.915449002512688, "alt_km": 431.6678828269887, "timestamp": "2025-12-10T21:43:21.743526+00:00", "meta": {"OBJECT_NAME": "GPM-CORE", "OBJECT_ID": "2014-009C", "EPOCH": "2025-12-10T14:50:53.742912", "MEAN_MOTION": 15.4548549, "ECCENTRICITY": 0.00105078, "INCLINATION": 64.9737, "RA_OF_ASC_NODE": 219.7819, "ARG_OF_PERICENTER": 270.3617, "MEAN_ANOMALY": 89.632, "EPHEMERIS_TYPE": 0, "CLASSIFICATION_TYPE": "U", "NORAD_CAT_ID": 39574, "ELEMENT_SET_NO": 999, "REV_AT_EPOCH": 66868, "BSTAR": 0.00037434763, "MEAN_MOTION_DOT": 0.00017872, "MEAN_MOTION_DDOT": 0}, "tle": {"line1": "1 39574U 14009C   25344.61867758  .00017872  00000+0  37435-3 0  9997", "line2": "2 39574  64.9737 219.7819 0010507 270.3617  89.6320 15.45485490668689"}}, "geometry": {"type": "Point", "coordinates": [26.915449002512688, 23.826003695692776]}}, {"type": "Feature", "properties": {"norad_id": 39634, "name": "SENTINEL-1A", "group": "resource", "lat": -31.912881805117227, "lon": 165.03376637908565, "alt_km": 702.4144403464279, "timestamp": "2025-12-10T21:43:21.743542+00:00", "meta": {"OBJECT_NAME": "SENTINEL-1A", "OBJECT_ID": "2014-016A", "EPOCH": "2025-12-10T12:31:29.554176", "MEAN_MOTION": 14.59200789, "ECCENTRICITY": 0.00012779, "INCLINATION": 98.1803, "RA_OF_ASC_NODE": 349.7957, "ARG_OF_PERICENTER": 82.8356, "MEAN_ANOMALY": 277.2989, "EPHEMERIS_TYPE": 0, "CLASSIFICATION_TYPE": "U", "NORAD_CAT_ID": 39634, "ELEMENT_SET_NO": 999, "REV_AT_EPOCH": 62250, "BSTAR": 4.4304083e-05, "MEAN_MOTION_DOT": 1.63e-06, "MEAN_MOTION_DDOT": 0}, "tle": {"line1": "1 39634U 14016A   25344.52186984  .00000163  00000+0  44304-4 0  9996", "line2": "2 39634  98.1803 349.7957 0001277  82.8356 277.2989 14.59200789622503"}}, "geometry": {"type": "Point", "coordinates": [165.03376637908565, -31.912881805117227]}}, {"type": "Feature", "properties": {"norad_id": 39731, "name": "KAZEOSAT 1", "group": "resource", "lat": -59.332267153932236, "lon": 71.18089672145175, "alt_km": 759.5057491700954, "timestamp": "2025-12-10T21:43:21.743552+00:00", "meta": {"OBJECT_NAME": "KAZEOSAT 1", "OBJECT_ID": "2014-024A", "EPOCH": "2025-12-10T15:20:28.680576", "MEAN_MOTION": 14.42061365, "ECCENTRICITY": 0.0001098, "INCLINATION": 98.343, "RA_OF_ASC_NODE": 56.5934, "ARG_OF_PERICENTER": 93.6166, "MEAN_ANOMALY": 266.515, "EPHEMERIS_TYPE": 0, "CLASSIFICATION_TYPE": "U", "NORAD_CAT_ID": 39731, "ELEMENT_SET_NO": 999, "REV_AT_EPOCH": 61138, "BSTAR": 0.00018678706, "MEAN_MOTION_DOT": 5.71e-06, "MEAN_MOTION_DDOT": 0}, "tle": {"line1": "1 39731U 14024A   25344.63922084  .00000571  00000+0  18679-3 0  9992", "line2": "2 39731  98.3430  56.5934 0001098  93.6166 266.5150 14.42061365611389"}}, "geometry": {"type": "Point", "coordinates": [71.18089672145175, -59.332267153932236]}}, {"type": "Feature", "properties": {"norad_id": 39766, "name": "ALOS-2", "group": "resource", "lat": -61.84567891553014, "lon": 94.86029682601472, "alt_km": 639.1574919225268, "timestamp": "2025-12-10T21:43:21.743562+00:00", "meta": {"OBJECT_NAME": "ALOS-2", "OBJECT_ID": "2014-029A", "EPOCH": "2025-12-10T12:16:02.876160", "MEAN_MOTION": 14.79466326, "ECCENTRICITY": 0.00014764, "INCLINATION": 97.9227, "RA_OF_ASC_NODE": 79.3892, "ARG_OF_PERICENTER": 98.4859, "MEAN_ANOMALY": 261.652, "EPHEMERIS_TYPE": 0, "CLASSIFICATION_TYPE": "U", "NORAD_CAT_ID": 39766, "ELEMENT_SET_NO": 999, "REV_AT_EPOCH": 62368, "BSTAR": 0.00028110593, "MEAN_MOTION_DOT": 2.048e-05, "MEAN_MOTION_DDOT": 0}, "tle": {"line1": "1 39766U 14029A   25344.51114440  .00002048  00000+0  28111-3 0  9994", "line2": "2 39766  97.9227  79.3892 0001476  98.4859 261.6520 14.79466326623683"}}, "geometry": {"type": "Point", "coordinates": [94.86029682601472, -61.84567891553014]}}, {"type": "Feature", "properties": {"norad_id": 40010, "name": "KAZEOSAT 2", "group": "resource", "lat": 10.081805010581254, "lon": 10.665289039368142, "alt_km": 610.8800870978175, "timestamp": "2025-12-10T21:43:21.743573+00:00", "meta": {"OBJECT_NAME": "KAZEOSAT 2", "OBJECT_ID": "2014-033A", "EPOCH": "2025-12-10T14:29:33.217152", "MEAN_MOTION": 14.85163279, "ECCENTRICITY": 0.00075535, "INCLINATION": 97.5503, "RA_OF_ASC_NODE": 189.0284, "ARG_OF_PERICENTER": 214.3602, "MEAN_ANOMALY": 145.7126, "EPHEMERIS_TYPE": 0, "CLASSIFICATION_TYPE": "U", "NORAD_CAT_ID": 40010, "ELEMENT_SET_NO": 999, "REV_AT_EPOCH": 62096, "BSTAR": 0.00018104622, "MEAN_MOTION_DOT": 1.501e-05, "MEAN_MOTION_DDOT": 0}, "tle": {"line1": "1 40010U 14033A   25344.60385668  .00001501  00000+0  18105-3 0  9990", "line2": "2 40010  97.5503 189.0284 0007553 214.3602 145.7126 14.85163279620961"}}, "geometry": {"type": "Point", "coordinates": [10.665289039368142, 10.081805010581254]}}, {"type": "Feature", "properties": {"norad_id": 40011, "name": "HODOYOSHI-4", "group": "resource", "lat": -61.57074668197558, "lon": -20.285351975720914, "alt_km": 599.838541756586, "timestamp": "2025-12-10T21:43:21.743583+00:00", "meta": {"OBJECT_NAME": "HODOYOSHI-4", "OBJECT_ID": "2014-033B", "EPOCH": "2025-12-10T14:10:41.404800", "MEAN_MOTION": 14.87467732, "ECCENTRICITY": 0.00231398, "INCLINATION": 97.5413, "RA_OF_ASC_NODE": 173.5806, "ARG_OF_PERICENTER": 208.1405, "MEAN_ANOMALY": 151.8563, "EPHEMERIS_TYPE": 0, "CLASSIFICATION_TYPE": "U", "NORAD_CAT_ID": 40011, "ELEMENT_SET_NO": 999, "REV_AT_EPOCH": 62076, "BSTAR": 0.00031204272, "MEAN_MOTION_DOT": 2.788e-05, "MEAN_MOTION_DDOT": 0}, "tle": {"line1": "1 40011U 14033B   25344.59075700  .00002788  00000+0  31204-3 0  9995", "line2": "2 40011  97.5413 173.5806 0023139 208.1405 151.8563 14.87467732620764"}}, "geometry": {"type": "Point", "coordinates": [-20.285351975720914, -61.57074668197558]}}, {"type": "Feature", "properties": {"norad_id": 40013, "name": "DEIMOS-2", "group": "resource", "lat": 3.1561663583829334, "lon": -139.65636137276425, "alt_km": 591.3156491923328, "timestamp": "2025-12-10T21:43:21.743594+00:00", "meta": {"OBJECT_NAME": "DEIMOS-2", "OBJECT_ID": "2014-033D", "EPOCH": "2025-12-10T15:16:27.522624", "MEAN_MOTION": 14.92959532, "ECCENTRICITY": 9.408e-05, "INCLINATION": 97.6065, "RA_OF_ASC_NODE": 220.5061, "ARG_OF_PERICENTER": 92.6245, "MEAN_ANOMALY": 267.5082, "EPHEMERIS_TYPE": 0, "CLASSIFICATION_TYPE": "U", "NORAD_CAT_ID": 40013, "ELEMENT_SET_NO": 999, "REV_AT_EPOCH": 60958, "BSTAR": 0.00034341264, "MEAN_MOTION_DOT": 3.512e-05, "MEAN_MOTION_DDOT": 0}, "tle": {"line1": "1 40013U 14033D   25344.63642966  .00003512  00000+0  34341-3 0  9997", "line2": "2 40013  97.6065 220.5061 0000940  92.6245 267.5082 14.92959532609587"}}, "geometry": {"type": "Point", "coordinates": [-139.65636137276425, 3.1561663583829334]}}, {"type": "Feature", "properties": {"norad_id": 40015, "name": "HODOYOSHI-3", "group": "resource", "lat": -5.0444945919168465, "lon": -29.857268783370923, "alt_km": 609.9643743909046, "timestamp": "2025-12-10T21:43:21.743605+00:00", "meta": {"OBJECT_NAME": "HODOYOSHI-3", "OBJECT_ID": "2014-033F", "EPOCH": "2025-12-10T11:11:05.438688", "MEAN_MOTION": 14.84794737, "ECCENTRICITY": 0.00318405, "INCLINATION": 97.62, "RA_OF_ASC_NODE": 150.4, "ARG_OF_PERICENTER": 255.7267, "MEAN_ANOMALY": 104.0411, "EPHEMERIS_TYPE": 0, "CLASSIFICATION_TYPE": "U", "NORAD_CAT_ID": 40015, "ELEMENT_SET_NO": 999, "REV_AT_EPOCH": 61961, "BSTAR": 0.00033087216, "MEAN_MOTION_DOT": 2.781e-05, "MEAN_MOTION_DDOT": 0}, "tle": {"line1": "1 40015U 14033F   25344.46603517  .00002781  00000+0  33087-3 0  9992", "line2": "2 40015  97.6200 150.4000 0031840 255.7267 104.0411 14.84794737619614"}}, "geometry": {"type": "Point", "coordinates": [-29.857268783370923, -5.0444945919168465]}}, {"type": "Feature", "properties": {"norad_id": 40053, "name": "SPOT 7", "group": "resource", "lat": 65.38493412780353, "lon": 28.935257672503376, "alt_km": 683.3842622351158, "timestamp": "2025-12-10T21:43:21.743615+00:00", "meta": {"OBJECT_NAME": "SPOT 7", "OBJECT_ID": "2014-034A", "EPOCH": "2025-12-10T14:50:33.567648", "MEAN_MOTION": 14.60729902, "ECCENTRICITY": 0.0001583, "INCLINATION": 98.0903, "RA_OF_ASC_NODE": 46.7427, "ARG_OF_PERICENTER": 87.9756, "MEAN_ANOMALY": 272.1626, "EPHEMERIS_TYPE": 0, "CLASSIFICATION_TYPE": "U", "NORAD_CAT_ID": 40053, "ELEMENT_SET_NO": 999, "REV_AT_EPOCH": 60960, "BSTAR": 0.00020904995, "MEAN_MOTION_DOT": 9.74e-06, "MEAN_MOTION_DDOT": 0}, "tle": {"line1": "1 40053U 14034A   25344.61844407  .00000974  00000+0  20905-3 0  9994", "line2": "2 40053  98.0903  46.7427 0001583  87.9756 272.1626 14.60729902609609"}}, "geometry": {"type": "Point", "coordinates": [28.935257672503376, 65.38493412780353]}}, {"type": "Feature", "properties": {"norad_id": 40072, "name": "SKYSAT-B", "group": "resource", "lat": -6.3762385189026185, "lon": 107.57251054271421, "alt_km": 606.5375189076894, "timestamp": "2025-12-10T21:43:21.743625+00:00", "meta": {"OBJECT_NAME": "SKYSAT-B", "OBJECT_ID": "2014-037D", "EPOCH": "2025-12-10T14:25:45.732864", "MEAN_MOTION": 14.87315032, "ECCENTRICITY": 0.00059809, "INCLINATION": 98.3608, "RA_OF_ASC_NODE": 288.1943, "ARG_OF_PERICENTER": 156.6486, "MEAN_ANOMALY": 203.5001, "EPHEMERIS_TYPE": 0, "CLASSIFICATION_TYPE": "U", "NORAD_CAT_ID": 40072, "ELEMENT_SET_NO": 999, "REV_AT_EPOCH": 61792, "BSTAR": 0.00035912799, "MEAN_MOTION_DOT": 3.182e-05, "MEAN_MOTION_DDOT": 0}, "tle": {"line1": "1 40072U 14037D   25344.60122376  .00003182  00000+0  35913-3 0  9990", "line2": "2 40072  98.3608 288.1943 0005980 156.6486 203.5001 14.87315032617922"}}, "geometry": {"type": "Point", "coordinates": [107.57251054271421, -6.3762385189026185]}}]}